{
"type": "FeatureCollection",
"name": "plot20mR",
"crs": { "type": "name", "properties": { "name": "urn:ogc:def:crs:EPSG::3006" } },
"features": [
{ "type": "Feature", "properties": { }, "geometry": { "type": "Polygon", "coordinates": [ [ [ 420427.631, 6481815.136 ], [ 420427.604, 6481814.089 ], [ 420427.521, 6481813.045 ], [ 420427.385, 6481812.007 ], [ 420427.194, 6481810.978 ], [ 420426.95, 6481809.959 ], [ 420426.652, 6481808.955 ], [ 420426.303, 6481807.968 ], [ 420425.902, 6481807.001 ], [ 420425.451, 6481806.056 ], [ 420424.952, 6481805.136 ], [ 420424.404, 6481804.243 ], [ 420423.811, 6481803.38 ], [ 420423.174, 6481802.549 ], [ 420422.494, 6481801.753 ], [ 420421.773, 6481800.994 ], [ 420421.014, 6481800.273 ], [ 420420.217, 6481799.593 ], [ 420419.387, 6481798.955 ], [ 420418.524, 6481798.362 ], [ 420417.631, 6481797.815 ], [ 420416.711, 6481797.316 ], [ 420415.766, 6481796.865 ], [ 420414.798, 6481796.464 ], [ 420413.811, 6481796.115 ], [ 420412.807, 6481795.817 ], [ 420411.789, 6481795.573 ], [ 420410.76, 6481795.382 ], [ 420409.722, 6481795.245 ], [ 420408.678, 6481795.163 ], [ 420407.631, 6481795.136 ], [ 420406.584, 6481795.163 ], [ 420405.54, 6481795.245 ], [ 420404.502, 6481795.382 ], [ 420403.473, 6481795.573 ], [ 420402.455, 6481795.817 ], [ 420401.451, 6481796.115 ], [ 420400.464, 6481796.464 ], [ 420399.496, 6481796.865 ], [ 420398.551, 6481797.316 ], [ 420397.631, 6481797.815 ], [ 420396.738, 6481798.362 ], [ 420395.875, 6481798.955 ], [ 420395.045, 6481799.593 ], [ 420394.248, 6481800.273 ], [ 420393.489, 6481800.994 ], [ 420392.768, 6481801.753 ], [ 420392.088, 6481802.549 ], [ 420391.451, 6481803.38 ], [ 420390.858, 6481804.243 ], [ 420390.311, 6481805.136 ], [ 420389.811, 6481806.056 ], [ 420389.36, 6481807.001 ], [ 420388.959, 6481807.968 ], [ 420388.61, 6481808.955 ], [ 420388.313, 6481809.959 ], [ 420388.068, 6481810.978 ], [ 420387.877, 6481812.007 ], [ 420387.741, 6481813.045 ], [ 420387.658, 6481814.089 ], [ 420387.631, 6481815.136 ], [ 420387.658, 6481816.182 ], [ 420387.741, 6481817.226 ], [ 420387.877, 6481818.264 ], [ 420388.068, 6481819.294 ], [ 420388.313, 6481820.312 ], [ 420388.61, 6481821.316 ], [ 420388.959, 6481822.303 ], [ 420389.36, 6481823.271 ], [ 420389.811, 6481824.216 ], [ 420390.311, 6481825.136 ], [ 420390.858, 6481826.029 ], [ 420391.451, 6481826.891 ], [ 420392.088, 6481827.722 ], [ 420392.768, 6481828.518 ], [ 420393.489, 6481829.278 ], [ 420394.248, 6481829.999 ], [ 420395.045, 6481830.679 ], [ 420395.875, 6481831.316 ], [ 420396.738, 6481831.909 ], [ 420397.631, 6481832.456 ], [ 420398.551, 6481832.956 ], [ 420399.496, 6481833.407 ], [ 420400.464, 6481833.807 ], [ 420401.451, 6481834.157 ], [ 420402.455, 6481834.454 ], [ 420403.473, 6481834.699 ], [ 420404.502, 6481834.89 ], [ 420405.54, 6481835.026 ], [ 420406.584, 6481835.108 ], [ 420407.631, 6481835.136 ], [ 420408.678, 6481835.108 ], [ 420409.722, 6481835.026 ], [ 420410.76, 6481834.89 ], [ 420411.789, 6481834.699 ], [ 420412.807, 6481834.454 ], [ 420413.811, 6481834.157 ], [ 420414.798, 6481833.807 ], [ 420415.766, 6481833.407 ], [ 420416.711, 6481832.956 ], [ 420417.631, 6481832.456 ], [ 420418.524, 6481831.909 ], [ 420419.387, 6481831.316 ], [ 420420.217, 6481830.679 ], [ 420421.014, 6481829.999 ], [ 420421.773, 6481829.278 ], [ 420422.494, 6481828.518 ], [ 420423.174, 6481827.722 ], [ 420423.811, 6481826.891 ], [ 420424.404, 6481826.029 ], [ 420424.952, 6481825.136 ], [ 420425.451, 6481824.216 ], [ 420425.902, 6481823.271 ], [ 420426.303, 6481822.303 ], [ 420426.652, 6481821.316 ], [ 420426.95, 6481820.312 ], [ 420427.194, 6481819.294 ], [ 420427.385, 6481818.264 ], [ 420427.521, 6481817.226 ], [ 420427.604, 6481816.182 ], [ 420427.631, 6481815.136 ] ] ] } }
]
}
